IRIDIUM 112             
1 41925U 17003J   25243.94303341  .00000147  00000+0  45496-4 0  9998
2 41925  86.3988 209.1088 0002190  84.8507 275.2938 14.34218933451810
IRIDIUM 111             
1 41926U 17003K   25243.93034929 -.00000014  00000+0 -11926-4 0  9997
2 41926  86.3991 209.1784 0002206  88.9870 271.1578 14.34217167451794
IRIDIUM 113             
1 42803U 17039A   25243.84054509  .00000088  00000+0  24426-4 0  9995
2 42803  86.3914  83.1260 0001915  86.5690 273.5725 14.34218078429712
IRIDIUM 123             
1 42804U 17039B   25243.88202313  .00000108  00000+0  31632-4 0  9998
2 42804  86.3954 114.6052 0002214  94.4064 265.7385 14.34218629428482
IRIDIUM 120             
1 42805U 17039C   25243.83419739  .00000113  00000+0  33426-4 0  9995
2 42805  86.3904  82.9485 0002431  89.0199 271.1276 14.34217462429705
IRIDIUM 115             
1 42806U 17039D   25243.93965078  .00000184  00000+0  48722-4 0  9992
2 42806  86.4440  82.9935 0002528 102.9551 257.1933 14.43280281432545
IRIDIUM 118             
1 42807U 17039E   25243.91373667  .00000018  00000+0 -76532-6 0  9997
2 42807  86.3951 114.5908 0001819  84.1280 276.0123 14.34217649428483
IRIDIUM 117             
1 42808U 17039F   25243.93278347  .00000380  00000+0  12849-3 0  9998
2 42808  86.3954 114.5438 0002099  92.5899 267.5537 14.34215576428510
